[
  {
    "COMMENT": "GENERATED VIA SPACETRACK.ORG API",
    "ORIGINATOR": "18 SPCS",
    "NORAD_CAT_ID": "25260",
    "OBJECT_NAME": "SPOT 4",
    "OBJECT_TYPE": "PAYLOAD",
    "CLASSIFICATION_TYPE": "U",
    "INTLDES": "98017A",
    "EPOCH": "2023-08-04 16:45:43",
    "EPOCH_MICROSECONDS": "54272",
    "MEAN_MOTION": "14.54255099",
    "ECCENTRICITY": "0.0012253",
    "INCLINATION": "98.2646",
    "RA_OF_ASC_NODE": "309.0766",
    "ARG_OF_PERICENTER": "214.6698",
    "MEAN_ANOMALY": "145.3702",
    "EPHEMERIS_TYPE": "0",
    "ELEMENT_SET_NO": "999",
    "REV_AT_EPOCH": "32720",
    "BSTAR": "0.00014335",
    "MEAN_MOTION_DOT": "0.00000563",
    "MEAN_MOTION_DDOT": "0",
    "FILE": "3971723",
    "TLE_LINE0": "0 SPOT 4",
    "TLE_LINE1": "1 25260U 98017A   23216.69841498  .00000563  00000-0  14335-3 0  9996",
    "TLE_LINE2": "2 25260  98.2646 309.0766 0012253 214.6698 145.3702 14.54255099327202",
    "OBJECT_ID": "1998-017A",
    "OBJECT_NUMBER": "25260",
    "SEMIMAJOR_AXIS": "7089.922",
    "PERIOD": "99.020",
    "APOGEE": "720.474",
    "PERIGEE": "703.100",
    "DECAYED": "0"
  },
  {
    "COMMENT": "GENERATED VIA SPACETRACK.ORG API",
    "ORIGINATOR": "18 SPCS",
    "NORAD_CAT_ID": "25260",
    "OBJECT_NAME": "SPOT 4",
    "OBJECT_TYPE": "PAYLOAD",
    "CLASSIFICATION_TYPE": "U",
    "INTLDES": "98017A",
    "EPOCH": "2023-08-05 02:40:11",
    "EPOCH_MICROSECONDS": "215488",
    "MEAN_MOTION": "14.54255604",
    "ECCENTRICITY": "0.0012291",
    "INCLINATION": "98.2646",
    "RA_OF_ASC_NODE": "309.4843",
    "ARG_OF_PERICENTER": "213.3447",
    "MEAN_ANOMALY": "146.6977",
    "EPHEMERIS_TYPE": "0",
    "ELEMENT_SET_NO": "999",
    "REV_AT_EPOCH": "32726",
    "BSTAR": "0.00014445",
    "MEAN_MOTION_DOT": "0.00000567",
    "MEAN_MOTION_DDOT": "0",
    "FILE": "3971984",
    "TLE_LINE0": "0 SPOT 4",
    "TLE_LINE1": "1 25260U 98017A   23217.11124092  .00000567  00000-0  14445-3 0  9994",
    "TLE_LINE2": "2 25260  98.2646 309.4843 0012291 213.3447 146.6977 14.54255604327268",
    "OBJECT_ID": "1998-017A",
    "OBJECT_NUMBER": "25260",
    "SEMIMAJOR_AXIS": "7089.920",
    "PERIOD": "99.020",
    "APOGEE": "720.499",
    "PERIGEE": "703.071",
    "DECAYED": "0"
  },
  {
    "COMMENT": "GENERATED VIA SPACETRACK.ORG API",
    "ORIGINATOR": "18 SPCS",
    "NORAD_CAT_ID": "25260",
    "OBJECT_NAME": "SPOT 4",
    "OBJECT_TYPE": "PAYLOAD",
    "CLASSIFICATION_TYPE": "U",
    "INTLDES": "98017A",
    "EPOCH": "2023-08-05 05:58:20",
    "EPOCH_MICROSECONDS": "589888",
    "MEAN_MOTION": "14.54255936",
    "ECCENTRICITY": "0.0012299",
    "INCLINATION": "98.2646",
    "RA_OF_ASC_NODE": "309.6202",
    "ARG_OF_PERICENTER": "212.9309",
    "MEAN_ANOMALY": "147.1123",
    "EPHEMERIS_TYPE": "0",
    "ELEMENT_SET_NO": "999",
    "REV_AT_EPOCH": "32728",
    "BSTAR": "0.00014948",
    "MEAN_MOTION_DOT": "0.00000589",
    "MEAN_MOTION_DDOT": "0",
    "FILE": "3972275",
    "TLE_LINE0": "0 SPOT 4",
    "TLE_LINE1": "1 25260U 98017A   23217.24884942  .00000589  00000-0  14948-3 0  9997",
    "TLE_LINE2": "2 25260  98.2646 309.6202 0012299 212.9309 147.1123 14.54255936327288",
    "OBJECT_ID": "1998-017A",
    "OBJECT_NUMBER": "25260",
    "SEMIMAJOR_AXIS": "7089.919",
    "PERIOD": "99.020",
    "APOGEE": "720.504",
    "PERIGEE": "703.064",
    "DECAYED": "0"
  },
  {
    "COMMENT": "GENERATED VIA SPACETRACK.ORG API",
    "ORIGINATOR": "18 SPCS",
    "NORAD_CAT_ID": "25260",
    "OBJECT_NAME": "SPOT 4",
    "OBJECT_TYPE": "PAYLOAD",
    "CLASSIFICATION_TYPE": "U",
    "INTLDES": "98017A",
    "EPOCH": "2023-08-05 17:31:53",
    "EPOCH_MICROSECONDS": "418432",
    "MEAN_MOTION": "14.5425679",
    "ECCENTRICITY": "0.0012323",
    "INCLINATION": "98.2645",
    "RA_OF_ASC_NODE": "310.0959",
    "ARG_OF_PERICENTER": "211.3471",
    "MEAN_ANOMALY": "148.6992",
    "EPHEMERIS_TYPE": "0",
    "ELEMENT_SET_NO": "999",
    "REV_AT_EPOCH": "32735",
    "BSTAR": "0.00015921",
    "MEAN_MOTION_DOT": "0.0000063",
    "MEAN_MOTION_DDOT": "0",
    "FILE": "3972565",
    "TLE_LINE0": "0 SPOT 4",
    "TLE_LINE1": "1 25260U 98017A   23217.73047938  .00000630  00000-0  15921-3 0  9996",
    "TLE_LINE2": "2 25260  98.2645 310.0959 0012323 211.3471 148.6992 14.54256790327350",
    "OBJECT_ID": "1998-017A",
    "OBJECT_NUMBER": "25260",
    "SEMIMAJOR_AXIS": "7089.916",
    "PERIOD": "99.020",
    "APOGEE": "720.518",
    "PERIGEE": "703.044",
    "DECAYED": "0"
  },
  {
    "COMMENT": "GENERATED VIA SPACETRACK.ORG API",
    "ORIGINATOR": "18 SPCS",
    "NORAD_CAT_ID": "25260",
    "OBJECT_NAME": "SPOT 4",
    "OBJECT_TYPE": "PAYLOAD",
    "CLASSIFICATION_TYPE": "U",
    "INTLDES": "98017A",
    "EPOCH": "2023-08-06 05:05:26",
    "EPOCH_MICROSECONDS": "250432",
    "MEAN_MOTION": "14.54257007",
    "ECCENTRICITY": "0.0012346",
    "INCLINATION": "98.2645",
    "RA_OF_ASC_NODE": "310.5715",
    "ARG_OF_PERICENTER": "209.7698",
    "MEAN_ANOMALY": "150.2797",
    "EPHEMERIS_TYPE": "0",
    "ELEMENT_SET_NO": "999",
    "REV_AT_EPOCH": "32742",
    "BSTAR": "0.00014438",
    "MEAN_MOTION_DOT": "0.00000567",
    "MEAN_MOTION_DDOT": "0",
    "FILE": "3972876",
    "TLE_LINE0": "0 SPOT 4",
    "TLE_LINE1": "1 25260U 98017A   23218.21210938  .00000567  00000-0  14438-3 0  9993",
    "TLE_LINE2": "2 25260  98.2645 310.5715 0012346 209.7698 150.2797 14.54257007327424",
    "OBJECT_ID": "1998-017A",
    "OBJECT_NUMBER": "25260",
    "SEMIMAJOR_AXIS": "7089.916",
    "PERIOD": "99.020",
    "APOGEE": "720.534",
    "PERIGEE": "703.027",
    "DECAYED": "0"
  },
  {
    "COMMENT": "GENERATED VIA SPACETRACK.ORG API",
    "ORIGINATOR": "18 SPCS",
    "NORAD_CAT_ID": "25260",
    "OBJECT_NAME": "SPOT 4",
    "OBJECT_TYPE": "PAYLOAD",
    "CLASSIFICATION_TYPE": "U",
    "INTLDES": "98017A",
    "EPOCH": "2023-08-06 06:44:30",
    "EPOCH_MICROSECONDS": "934176",
    "MEAN_MOTION": "14.54257127",
    "ECCENTRICITY": "0.0012351",
    "INCLINATION": "98.2645",
    "RA_OF_ASC_NODE": "310.6395",
    "ARG_OF_PERICENTER": "209.5686",
    "MEAN_ANOMALY": "150.4813",
    "EPHEMERIS_TYPE": "0",
    "ELEMENT_SET_NO": "999",
    "REV_AT_EPOCH": "32743",
    "BSTAR": "0.00014519",
    "MEAN_MOTION_DOT": "0.00000571",
    "MEAN_MOTION_DDOT": "0",
    "FILE": "3973121",
    "TLE_LINE0": "0 SPOT 4",
    "TLE_LINE1": "1 25260U 98017A   23218.28091359  .00000571  00000-0  14519-3 0  9999",
    "TLE_LINE2": "2 25260  98.2645 310.6395 0012351 209.5686 150.4813 14.54257127327435",
    "OBJECT_ID": "1998-017A",
    "OBJECT_NUMBER": "25260",
    "SEMIMAJOR_AXIS": "7089.915",
    "PERIOD": "99.020",
    "APOGEE": "720.537",
    "PERIGEE": "703.023",
    "DECAYED": "0"
  },
  {
    "COMMENT": "GENERATED VIA SPACETRACK.ORG API",
    "ORIGINATOR": "18 SPCS",
    "NORAD_CAT_ID": "25260",
    "OBJECT_NAME": "SPOT 4",
    "OBJECT_TYPE": "PAYLOAD",
    "CLASSIFICATION_TYPE": "U",
    "INTLDES": "98017A",
    "EPOCH": "2023-08-06 19:57:08",
    "EPOCH_MICROSECONDS": "417952",
    "MEAN_MOTION": "14.54257804",
    "ECCENTRICITY": "0.0012381",
    "INCLINATION": "98.2645",
    "RA_OF_ASC_NODE": "311.1831",
    "ARG_OF_PERICENTER": "207.8021",
    "MEAN_ANOMALY": "152.2516",
    "EPHEMERIS_TYPE": "0",
    "ELEMENT_SET_NO": "999",
    "REV_AT_EPOCH": "32751",
    "BSTAR": "0.00014462",
    "MEAN_MOTION_DOT": "0.00000568",
    "MEAN_MOTION_DDOT": "0",
    "FILE": "3973536",
    "TLE_LINE0": "0 SPOT 4",
    "TLE_LINE1": "1 25260U 98017A   23218.83134743  .00000568  00000-0  14462-3 0  9998",
    "TLE_LINE2": "2 25260  98.2645 311.1831 0012381 207.8021 152.2516 14.54257804327514",
    "OBJECT_ID": "1998-017A",
    "OBJECT_NUMBER": "25260",
    "SEMIMAJOR_AXIS": "7089.913",
    "PERIOD": "99.020",
    "APOGEE": "720.556",
    "PERIGEE": "703.000",
    "DECAYED": "0"
  },
  {
    "COMMENT": "GENERATED VIA SPACETRACK.ORG API",
    "ORIGINATOR": "18 SPCS",
    "NORAD_CAT_ID": "25260",
    "OBJECT_NAME": "SPOT 4",
    "OBJECT_TYPE": "PAYLOAD",
    "CLASSIFICATION_TYPE": "U",
    "INTLDES": "98017A",
    "EPOCH": "2023-08-07 02:33:27",
    "EPOCH_MICROSECONDS": "157248",
    "MEAN_MOTION": "14.5425813",
    "ECCENTRICITY": "0.0012389",
    "INCLINATION": "98.2645",
    "RA_OF_ASC_NODE": "311.455",
    "ARG_OF_PERICENTER": "206.9663",
    "MEAN_ANOMALY": "153.0891",
    "EPHEMERIS_TYPE": "0",
    "ELEMENT_SET_NO": "999",
    "REV_AT_EPOCH": "32755",
    "BSTAR": "0.00014485",
    "MEAN_MOTION_DOT": "0.00000569",
    "MEAN_MOTION_DDOT": "0",
    "FILE": "3973795",
    "TLE_LINE0": "0 SPOT 4",
    "TLE_LINE1": "1 25260U 98017A   23219.10656432  .00000569  00000-0  14485-3 0  9999",
    "TLE_LINE2": "2 25260  98.2645 311.4550 0012389 206.9663 153.0891 14.54258130327557",
    "OBJECT_ID": "1998-017A",
    "OBJECT_NUMBER": "25260",
    "SEMIMAJOR_AXIS": "7089.912",
    "PERIOD": "99.020",
    "APOGEE": "720.561",
    "PERIGEE": "702.993",
    "DECAYED": "0"
  },
  {
    "COMMENT": "GENERATED VIA SPACETRACK.ORG API",
    "ORIGINATOR": "18 SPCS",
    "NORAD_CAT_ID": "25260",
    "OBJECT_NAME": "SPOT 4",
    "OBJECT_TYPE": "PAYLOAD",
    "CLASSIFICATION_TYPE": "U",
    "INTLDES": "98017A",
    "EPOCH": "2023-08-07 05:51:36",
    "EPOCH_MICROSECONDS": "525600",
    "MEAN_MOTION": "14.54258271",
    "ECCENTRICITY": "0.0012395",
    "INCLINATION": "98.2644",
    "RA_OF_ASC_NODE": "311.5909",
    "ARG_OF_PERICENTER": "206.5176",
    "MEAN_ANOMALY": "153.5388",
    "EPHEMERIS_TYPE": "0",
    "ELEMENT_SET_NO": "999",
    "REV_AT_EPOCH": "32757",
    "BSTAR": "0.00014335",
    "MEAN_MOTION_DOT": "0.00000563",
    "MEAN_MOTION_DDOT": "0",
    "FILE": "3974120",
    "TLE_LINE0": "0 SPOT 4",
    "TLE_LINE1": "1 25260U 98017A   23219.24417275  .00000563  00000-0  14335-3 0  9992",
    "TLE_LINE2": "2 25260  98.2644 311.5909 0012395 206.5176 153.5388 14.54258271327571",
    "OBJECT_ID": "1998-017A",
    "OBJECT_NUMBER": "25260",
    "SEMIMAJOR_AXIS": "7089.911",
    "PERIOD": "99.020",
    "APOGEE": "720.564",
    "PERIGEE": "702.989",
    "DECAYED": "0"
  }
]